NORAD_CAT_ID,OBJECT_NAME,OBJECT_TYPE,EPOCH,MEAN_MOTION,ECCENTRICITY,INCLINATION,RA_OF_ASC_NODE,ARG_OF_PERICENTER,MEAN_ANOMALY,BSTAR,MEAN_MOTION_DOT,MEAN_MOTION_DDOT,TLE_LINE0,TLE_LINE1,TLE_LINE2,SEMIMAJOR_AXIS,PERIOD,APOGEE,PERIGEE,DECAYED
52671.0,STARLINK-4071,PAYLOAD,2022-09-06 14:00:01,15.08785506,0.0001935,53.2185,140.7412,60.5834,99.1072,0.0030808,0.00049011,0.0,0 STARLINK-4071,1 52671U 22053R   22249.58334491  .00049011  00000-0  30808-2 0  9995,2 52671  53.2185 140.7412 0001935  60.5834  99.1072 15.08785506  1307,6918.047,95.441,541.251,538.573,0.0
52671.0,STARLINK-4071,PAYLOAD,2022-09-06 22:00:00,15.08824729,0.0002068,53.2187,139.2465,58.5655,112.6758,-0.00082582,-0.00013402,0.0,0 STARLINK-4071,1 52671U 22053R   22249.91667824 -.00013402  00000-0 -82582-3 0  9995,2 52671  53.2187 139.2465 0002068  58.5655 112.6758 15.08824729  1309,6917.927,95.439,541.2230000000002,538.361,0.0
52671.0,STARLINK-4071,PAYLOAD,2022-09-07 04:00:00,15.08801363,0.0002121999999999,53.2187,138.125,54.9733,34.9479,0.0031588,0.00050291,0.0,0 STARLINK-4071,1 52671U 22053R   22250.16667824  .00050291  00000-0  31588-2 0  9998,2 52671  53.2187 138.1250 0002122  54.9733  34.9479 15.08801363 17455,6917.998000000001,95.44,541.331,538.395,0.0
52671.0,STARLINK-4071,PAYLOAD,2022-09-07 14:00:01,15.08814693,0.0002014,53.2188,136.2526,61.6077,132.7879,0.0030467,0.00048501,0.0,0 STARLINK-4071,1 52671U 22053R   22250.58334491  .00048501  00000-0  30467-2 0  9991,2 52671  53.2188 136.2526 0002014  61.6077 132.7879 15.08814693  1305,6917.958000000001,95.439,541.216,538.429,0.0
52671.0,STARLINK-4071,PAYLOAD,2022-09-07 22:00:00,15.08848159,0.0002163,53.219,134.7579,58.7819,147.1966,-0.00063828,-0.00010435,0.0,0 STARLINK-4071,1 52671U 22053R   22250.91667824 -.00010435  00000-0 -63828-3 0  9992,2 52671  53.2190 134.7579 0002163  58.7819 147.1966 15.08848159  1306,6917.855,95.437,541.217,538.224,0.0
52671.0,STARLINK-4071,PAYLOAD,2022-09-08 14:00:01,15.08815851,0.0001998,53.2192,131.7638,61.0271,168.169,0.003026,0.00048169,0.0,0 STARLINK-4071,1 52671U 22053R   22251.58334491  .00048169  00000-0  30260-2 0  9993,2 52671  53.2192 131.7638 0001998  61.0271 168.1690 15.08815851  1305,6917.954000000002,95.439,541.201,538.437,0.0
52671.0,STARLINK-4071,PAYLOAD,2022-09-08 22:00:00,15.08853162,0.0002129,53.2193,130.2692,57.4841,183.3008,-0.00081067,-0.00013172,0.0,0 STARLINK-4071,1 52671U 22053R   22251.91667824 -.00013172  00000-0 -81067-3 0  9999,2 52671  53.2193 130.2692 0002129  57.4841 183.3008 15.08853162 17710,6917.84,95.437,541.178,538.232,0.0
52671.0,STARLINK-4071,PAYLOAD,2022-09-09 14:00:01,15.08822215,0.0001937,53.2194,127.2749,60.5078,203.487,0.002971,0.0004729,0.0,0 STARLINK-4071,1 52671U 22053R   22252.58334491  .00047290  00000-0  29710-2 0  9996,2 52671  53.2194 127.2749 0001937  60.5078 203.4870 15.08822215  1307,6917.935,95.439,541.14,538.46,0.0
52671.0,STARLINK-4071,PAYLOAD,2022-09-09 22:00:00,15.08856524,0.0002029,53.2194,125.7802,55.8123,219.7781,-0.0027914,-0.00044461,0.0,0 STARLINK-4071,1 52671U 22053R   22252.91667824 -.00044461  00000-0 -27914-2 0  9995,2 52671  53.2194 125.7802 0002029  55.8123 219.7781 15.08856524  1302,6917.83,95.437,541.099,538.2909999999998,0.0
52671.0,STARLINK-4071,PAYLOAD,2022-09-10 06:00:02,15.08845992,0.0001953,53.2193,124.2836,53.7228,233.5179,-0.0012499,-0.00020129,0.0,0 STARLINK-4071,1 52671U 22053R   22253.25002315 -.00020129  00000-0 -12499-2 0  9998,2 52671  53.2193 124.2836 0001953  53.7228 233.5179 15.08845992 17916,6917.861999999999,95.437,541.078,538.376,0.0
52671.0,STARLINK-4071,PAYLOAD,2022-09-10 14:00:01,15.08832232,0.0001818,53.2194,122.7859,59.8713,238.9025,-7.632300000000001e-05,-1.502e-05,0.0,0 STARLINK-4071,1 52671U 22053R   22253.58334491 -.00001502  00000-0 -76323-4 0  9999,2 52671  53.2194 122.7859 0001818  59.8713 238.9025 15.08832232  1309,6917.904,95.438,541.0269999999998,538.511,0.0
52671.0,STARLINK-4071,PAYLOAD,2022-09-10 22:00:00,15.08822974,0.0001921999999999,53.2193,121.2913,54.1345,256.2298,-0.00021998,-3.786e-05,0.0,0 STARLINK-4071,1 52671U 22053R   22253.91667824 -.00003786  00000-0 -21998-3 0  9998,2 52671  53.2193 121.2913 0001922  54.1345 256.2298 15.08822974  1305,6917.932,95.439,541.127,538.4680000000002,0.0
52671.0,STARLINK-4071,PAYLOAD,2022-09-11 06:00:00,15.08848842,0.0001868,53.2189,119.7945,53.3026,268.6344,-0.0015194,-0.00024394,0.0,0 STARLINK-4071,1 52671U 22053R   22254.25001157 -.00024394  00000-0 -15194-2 0  9995,2 52671  53.2189 119.7945 0001868  53.3026 268.6344 15.08848842 18065,6917.853,95.437,541.011,538.4259999999998,0.0
52671.0,STARLINK-4071,PAYLOAD,2022-09-11 14:00:01,15.08827226,0.0001757,53.2191,118.2969,60.6036,272.9311,0.0028384,0.00045159,0.0,0 STARLINK-4071,1 52671U 22053R   22254.58334491  .00045159  00000-0  28384-2 0  9996,2 52671  53.2191 118.2969 0001757  60.6036 272.9311 15.08827226  1301,6917.919,95.438,541.0,538.569,0.0
52671.0,STARLINK-4071,PAYLOAD,2022-09-11 22:00:00,15.08860876,0.0001868,53.2188,116.8024,54.8015,290.332,-0.0015864,-0.00025462,0.0,0 STARLINK-4071,1 52671U 22053R   22254.91667824 -.00025462  00000-0 -15864-2 0  9998,2 52671  53.2188 116.8024 0001868  54.8015 290.3320 15.08860876 18162,6917.816999999999,95.436,540.974,538.389,0.0
52671.0,STARLINK-4071,PAYLOAD,2022-09-12 14:00:01,15.08830108,0.0001599,53.2185,113.8079,59.3832,308.9531,-2.3838e-06,-3.26e-06,0.0,0 STARLINK-4071,1 52671U 22053R   22255.58334491 -.00000326  00000-0 -23838-5 0  9998,2 52671  53.2185 113.8079 0001599  59.3832 308.9531 15.08830108  1307,6917.911,95.438,540.882,538.669,0.0
52671.0,STARLINK-4071,PAYLOAD,2022-09-12 22:00:00,15.08820598,0.0001733999999999,53.2182,112.3128,52.4602,327.4611,0.00026695,3.961e-05,0.0,0 STARLINK-4071,1 52671U 22053R   22255.91667824  .00003961  00000-0  26695-3 0  9992,2 52671  53.2182 112.3128 0001734  52.4602 327.4611 15.08820598 18320,6917.94,95.439,541.004,538.605,0.0
52671.0,STARLINK-4071,PAYLOAD,2022-09-13 14:00:01,15.08834347,0.0001581,53.218,109.3188,59.2161,343.8692,0.0019302,0.0003056,0.0,0 STARLINK-4071,1 52671U 22053R   22256.58334491  .00030560  00000-0  19302-2 0  9998,2 52671  53.2180 109.3188 0001581  59.2161 343.8692 15.08834347  1303,6917.898,95.438,540.856,538.669,0.0
52671.0,STARLINK-4071,PAYLOAD,2022-09-13 22:00:00,15.08843664,0.0001715,53.2178,107.8237,51.8942,2.7916,-0.0020164,-0.00032239,0.0,0 STARLINK-4071,1 52671U 22053R   22256.91667824 -.00032239  00000-0 -20164-2 0  9999,2 52671  53.2178 107.8237 0001715  51.8942   2.7916 15.08843664  1304,6917.869000000002,95.437,540.9209999999998,538.548,0.0
52671.0,STARLINK-4071,PAYLOAD,2022-09-14 14:00:01,15.08831888,0.0001578,53.218,104.8296,57.3869,20.4652,0.0015702,0.00024785,0.0,0 STARLINK-4071,1 52671U 22053R   22257.58334491  .00024785  00000-0  15702-2 0  9991,2 52671  53.2180 104.8296 0001578  57.3869  20.4652 15.08831888  1304,6917.905,95.438,540.862,538.679,0.0
52671.0,STARLINK-4071,PAYLOAD,2022-09-14 22:00:00,15.08837905,0.0001735,53.2181,103.335,50.4119,39.0382,0.00074776,0.00011632,0.0,0 STARLINK-4071,1 52671U 22053R   22257.91667824  .00011632  00000-0  74776-3 0  9991,2 52671  53.2181 103.3350 0001735  50.4119  39.0382 15.08837905 18622,6917.887,95.438,540.952,538.552,0.0
52671.0,STARLINK-4071,PAYLOAD,2022-09-15 14:00:01,15.08835132,0.0001561,53.2185,100.3405,54.3542,58.289,0.0012479,0.00019625,0.0,0 STARLINK-4071,1 52671U 22053R   22258.58334491  .00019625  00000-0  12479-2 0  9997,2 52671  53.2185 100.3405 0001561  54.3542  58.2890 15.08835132  1308,6917.895,95.438,540.84,538.68,0.0
52671.0,STARLINK-4071,PAYLOAD,2022-09-15 16:40:58,15.08846183,0.0001713,53.2204,99.8405,53.0606,307.0543,6.2061e-05,7.000000000000003e-06,0.0,0 STARLINK-4071,1 52671U 22053R   22258.69511650  .00000700  00000-0  62061-4 0  9991,2 52671  53.2204  99.8405 0001713  53.0606 307.0543 15.08846183 19169,6917.861,95.437,540.9119999999998,538.5409999999998,0.0
52671.0,STARLINK-4071,PAYLOAD,2022-09-16 00:37:53,15.08842931,0.0001695,53.2202,98.3533,52.3368,307.7778,3.0541e-05,1.98e-06,0.0,0 STARLINK-4071,1 52671U 22053R   22259.02631885  .00000198  00000-0  30541-4 0  9991,2 52671  53.2202  98.3533 0001695  52.3368 307.7778 15.08842931 18780,6917.871,95.437,540.909,538.564,0.0
52671.0,STARLINK-4071,PAYLOAD,2022-09-16 13:20:59,15.08839965,0.0001551999999999,53.2192,95.9726,64.2247,295.8905,7.0356e-05,8.32e-06,0.0,0 STARLINK-4071,1 52671U 22053R   22259.55623858  .00000832  00000-0  70356-4 0  9993,2 52671  53.2192  95.9726 0001552  64.2247 295.8905 15.08839965 19294,6917.88,95.438,540.819,538.672,0.0
52671.0,STARLINK-4071,PAYLOAD,2022-09-16 18:07:09,15.08812304,0.0001381,53.2195,95.0811,64.6879,295.4256,0.00035841,5.416e-05,0.0,0 STARLINK-4071,1 52671U 22053R   22259.75497065  .00005416  00000-0  35841-3 0  9996,2 52671  53.2195  95.0811 0001381  64.6879 295.4256 15.08812304 19325,6917.965,95.439,540.785,538.875,0.0
52671.0,STARLINK-4071,PAYLOAD,2022-09-16 22:53:18,15.08837388,0.0001533,53.2196,94.1892,63.6746,296.4404,-5.239899999999999e-07,-2.96e-06,0.0,0 STARLINK-4071,1 52671U 22053R   22259.95368247 -.00000296  00000-0 -52399-6 0  9990,2 52671  53.2196  94.1892 0001533  63.6746 296.4404 15.08837388 19354,6917.888000000001,95.438,540.814,538.693,0.0
52671.0,STARLINK-4071,PAYLOAD,2022-09-17 19:33:19,15.08831003,0.0001639,53.2201,90.3245,52.5146,307.5995,-3.1474000000000004e-05,-7.89e-06,0.0,0 STARLINK-4071,1 52671U 22053R   22260.81480895 -.00000789  00000-0 -31474-4 0  9997,2 52671  53.2201  90.3245 0001639  52.5146 307.5995 15.08831003 19480,6917.908,95.438,540.9069999999998,538.639,0.0
52671.0,STARLINK-4071,PAYLOAD,2022-09-18 05:05:40,15.08724112,0.0001247,53.2204,88.541,79.5969,280.5163,0.0014273,0.00022428,0.0,0 STARLINK-4071,1 52671U 22053R   22261.21226887  .00022428  00000-0  14273-2 0  9999,2 52671  53.2204  88.5410 0001247  79.5969 280.5163 15.08724112 19112,6918.235,95.445,540.962,539.237,0.0
